STARLINK-36362          
1 67424U 26005W   26033.50002314  .00088274  00000+0  14974-2 0  9990
2 67424  43.0001  79.9991 0001465 271.7087 203.2397 15.50506868  4537
STARLINK-36447          
1 67425U 26005X   26033.50002314 -.00022834  00000+0 -38467-3 0  9997
2 67425  42.9999  79.9940 0001070 280.7365 196.1098 15.50569298  4531
STARLINK-36146          
1 67426U 26005Y   26033.50002314  .00092138  00000+0  15621-2 0  9996
2 67426  43.0001  79.9891 0001385 268.2975 210.4828 15.50504074  4486
STARLINK-36459          
1 67427U 26005Z   26033.50002314  .00088729  00000+0  15052-2 0  9996
2 67427  43.0001  79.9836 0001436 270.0746 210.6284 15.50504132  4450
STARLINK-36464          
1 67428U 26005AA  26033.50002314  .00093275  00000+0  15812-2 0  9993
2 67428  43.0000  79.9745 0001363 269.6443 214.8911 15.50502399  4531
STARLINK-36513          
1 67429U 26005AB  26033.50002314  .00101298  00000+0  17150-2 0  9996
2 67429  43.0001  79.9694 0000796 288.1002 198.2938 15.50501844  4530
STARLINK-36515          
1 67430U 26005AC  26033.50002314  .00094666  00000+0  16044-2 0  9999
2 67430  43.0000  79.9792 0001390 269.1640 213.4536 15.50502394  4454
STARLINK-36443          
1 67431U 26005AD  26033.50002314  .00089171  00000+0  15124-2 0  9993
2 67431  43.0001  79.9636 0000806 284.6897 203.6775 15.50506811  4487
STARLINK-36460          
1 67432U 26005AE  26033.50002314  .00123762  00000+0  20880-2 0  9994
2 67432  43.0002  79.9595 0001069 273.4590 216.7962 15.50500687  4535
YAOGAN-50 01            
1 67433U 26006A   26033.46485237  .00000343  00000+0  13960-3 0  9991
2 67433 142.0317 284.7244 0000661 265.4556  94.6087 13.83253360  2774
CZ-6A R/B               
1 67434U 26006B   26033.45281303  .00001456  00000+0  16420-3 0  9999
2 67434 142.0436 296.8225 0203364 227.4790 130.8599 14.62293011  2915
HULIANWANG DIGUI-137    
1 67435U 26007A   26032.02760062  .00000017  00000+0  14680-3 0  9995
2 67435  50.0080 221.3687 0000526 259.3583 100.7253 13.82639757  2569
