CCSDS_OMM_VERS = 2.0
CREATION_DATE  = 
ORIGINATOR     = 

OBJECT_NAME    = STARLINK-36362
OBJECT_ID      = 2026-005W
CENTER_NAME    = EARTH
REF_FRAME      = TEME
TIME_SYSTEM    = UTC
MEAN_ELEMENT_THEORY = SGP/SGP4

EPOCH          = 2026-02-02T12:00:01.999296
MEAN_MOTION    = 15.50506868
ECCENTRICITY   = .0001465
INCLINATION    = 43.0001
RA_OF_ASC_NODE = 79.9991
ARG_OF_PERICENTER = 271.7087
MEAN_ANOMALY   = 203.2397

EPHEMERIS_TYPE = 0
CLASSIFICATION_TYPE = U
NORAD_CAT_ID   = 67424
ELEMENT_SET_NO = 999
REV_AT_EPOCH   = 453
BSTAR          = .14974E-2
MEAN_MOTION_DOT = .88274E-3
MEAN_MOTION_DDOT = 0

CCSDS_OMM_VERS = 2.0
CREATION_DATE  = 
ORIGINATOR     = 

OBJECT_NAME    = STARLINK-36447
OBJECT_ID      = 2026-005X
CENTER_NAME    = EARTH
REF_FRAME      = TEME
TIME_SYSTEM    = UTC
MEAN_ELEMENT_THEORY = SGP/SGP4

EPOCH          = 2026-02-02T12:00:01.999296
MEAN_MOTION    = 15.50569298
ECCENTRICITY   = .000107
INCLINATION    = 42.9999
RA_OF_ASC_NODE = 79.9940
ARG_OF_PERICENTER = 280.7365
MEAN_ANOMALY   = 196.1098

EPHEMERIS_TYPE = 0
CLASSIFICATION_TYPE = U
NORAD_CAT_ID   = 67425
ELEMENT_SET_NO = 999
REV_AT_EPOCH   = 453
BSTAR          = -.38467E-3
MEAN_MOTION_DOT = -.22834E-3
MEAN_MOTION_DDOT = 0

CCSDS_OMM_VERS = 2.0
CREATION_DATE  = 
ORIGINATOR     = 

OBJECT_NAME    = STARLINK-36146
OBJECT_ID      = 2026-005Y
CENTER_NAME    = EARTH
REF_FRAME      = TEME
TIME_SYSTEM    = UTC
MEAN_ELEMENT_THEORY = SGP/SGP4

EPOCH          = 2026-02-02T12:00:01.999296
MEAN_MOTION    = 15.50504074
ECCENTRICITY   = .0001385
INCLINATION    = 43.0001
RA_OF_ASC_NODE = 79.9891
ARG_OF_PERICENTER = 268.2975
MEAN_ANOMALY   = 210.4828

EPHEMERIS_TYPE = 0
CLASSIFICATION_TYPE = U
NORAD_CAT_ID   = 67426
ELEMENT_SET_NO = 999
REV_AT_EPOCH   = 448
BSTAR          = .15621E-2
MEAN_MOTION_DOT = .92138E-3
MEAN_MOTION_DDOT = 0

CCSDS_OMM_VERS = 2.0
CREATION_DATE  = 
ORIGINATOR     = 

OBJECT_NAME    = STARLINK-36459
OBJECT_ID      = 2026-005Z
CENTER_NAME    = EARTH
REF_FRAME      = TEME
TIME_SYSTEM    = UTC
MEAN_ELEMENT_THEORY = SGP/SGP4

EPOCH          = 2026-02-02T12:00:01.999296
MEAN_MOTION    = 15.50504132
ECCENTRICITY   = .0001436
INCLINATION    = 43.0001
RA_OF_ASC_NODE = 79.9836
ARG_OF_PERICENTER = 270.0746
MEAN_ANOMALY   = 210.6284

EPHEMERIS_TYPE = 0
CLASSIFICATION_TYPE = U
NORAD_CAT_ID   = 67427
ELEMENT_SET_NO = 999
REV_AT_EPOCH   = 445
BSTAR          = .15052E-2
MEAN_MOTION_DOT = .88729E-3
MEAN_MOTION_DDOT = 0

CCSDS_OMM_VERS = 2.0
CREATION_DATE  = 
ORIGINATOR     = 

OBJECT_NAME    = STARLINK-36464
OBJECT_ID      = 2026-005AA
CENTER_NAME    = EARTH
REF_FRAME      = TEME
TIME_SYSTEM    = UTC
MEAN_ELEMENT_THEORY = SGP/SGP4

EPOCH          = 2026-02-02T12:00:01.999296
MEAN_MOTION    = 15.50502399
ECCENTRICITY   = .0001363
INCLINATION    = 43.0000
RA_OF_ASC_NODE = 79.9745
ARG_OF_PERICENTER = 269.6443
MEAN_ANOMALY   = 214.8911

EPHEMERIS_TYPE = 0
CLASSIFICATION_TYPE = U
NORAD_CAT_ID   = 67428
ELEMENT_SET_NO = 999
REV_AT_EPOCH   = 453
BSTAR          = .15812E-2
MEAN_MOTION_DOT = .93275E-3
MEAN_MOTION_DDOT = 0

CCSDS_OMM_VERS = 2.0
CREATION_DATE  = 
ORIGINATOR     = 

OBJECT_NAME    = STARLINK-36513
OBJECT_ID      = 2026-005AB
CENTER_NAME    = EARTH
REF_FRAME      = TEME
TIME_SYSTEM    = UTC
MEAN_ELEMENT_THEORY = SGP/SGP4

EPOCH          = 2026-02-02T12:00:01.999296
MEAN_MOTION    = 15.50501844
ECCENTRICITY   = .0000796
INCLINATION    = 43.0001
RA_OF_ASC_NODE = 79.9694
ARG_OF_PERICENTER = 288.1002
MEAN_ANOMALY   = 198.2938

EPHEMERIS_TYPE = 0
CLASSIFICATION_TYPE = U
NORAD_CAT_ID   = 67429
ELEMENT_SET_NO = 999
REV_AT_EPOCH   = 453
BSTAR          = .1715E-2
MEAN_MOTION_DOT = .101298E-2
MEAN_MOTION_DDOT = 0

CCSDS_OMM_VERS = 2.0
CREATION_DATE  = 
ORIGINATOR     = 

OBJECT_NAME    = STARLINK-36515
OBJECT_ID      = 2026-005AC
CENTER_NAME    = EARTH
REF_FRAME      = TEME
TIME_SYSTEM    = UTC
MEAN_ELEMENT_THEORY = SGP/SGP4

EPOCH          = 2026-02-02T12:00:01.999296
MEAN_MOTION    = 15.50502394
ECCENTRICITY   = .000139
INCLINATION    = 43.0000
RA_OF_ASC_NODE = 79.9792
ARG_OF_PERICENTER = 269.1640
MEAN_ANOMALY   = 213.4536

EPHEMERIS_TYPE = 0
CLASSIFICATION_TYPE = U
NORAD_CAT_ID   = 67430
ELEMENT_SET_NO = 999
REV_AT_EPOCH   = 445
BSTAR          = .16044E-2
MEAN_MOTION_DOT = .94666E-3
MEAN_MOTION_DDOT = 0

CCSDS_OMM_VERS = 2.0
CREATION_DATE  = 
ORIGINATOR     = 

OBJECT_NAME    = STARLINK-36443
OBJECT_ID      = 2026-005AD
CENTER_NAME    = EARTH
REF_FRAME      = TEME
TIME_SYSTEM    = UTC
MEAN_ELEMENT_THEORY = SGP/SGP4

EPOCH          = 2026-02-02T12:00:01.999296
MEAN_MOTION    = 15.50506811
ECCENTRICITY   = .0000806
INCLINATION    = 43.0001
RA_OF_ASC_NODE = 79.9636
ARG_OF_PERICENTER = 284.6897
MEAN_ANOMALY   = 203.6775

EPHEMERIS_TYPE = 0
CLASSIFICATION_TYPE = U
NORAD_CAT_ID   = 67431
ELEMENT_SET_NO = 999
REV_AT_EPOCH   = 448
BSTAR          = .15124E-2
MEAN_MOTION_DOT = .89171E-3
MEAN_MOTION_DDOT = 0

CCSDS_OMM_VERS = 2.0
CREATION_DATE  = 
ORIGINATOR     = 

OBJECT_NAME    = STARLINK-36460
OBJECT_ID      = 2026-005AE
CENTER_NAME    = EARTH
REF_FRAME      = TEME
TIME_SYSTEM    = UTC
MEAN_ELEMENT_THEORY = SGP/SGP4

EPOCH          = 2026-02-02T12:00:01.999296
MEAN_MOTION    = 15.50500687
ECCENTRICITY   = .0001069
INCLINATION    = 43.0002
RA_OF_ASC_NODE = 79.9595
ARG_OF_PERICENTER = 273.4590
MEAN_ANOMALY   = 216.7962

EPHEMERIS_TYPE = 0
CLASSIFICATION_TYPE = U
NORAD_CAT_ID   = 67432
ELEMENT_SET_NO = 999
REV_AT_EPOCH   = 453
BSTAR          = .2088E-2
MEAN_MOTION_DOT = .123762E-2
MEAN_MOTION_DDOT = 0

CCSDS_OMM_VERS = 2.0
CREATION_DATE  = 
ORIGINATOR     = 

OBJECT_NAME    = YAOGAN-50 01
OBJECT_ID      = 2026-006A
CENTER_NAME    = EARTH
REF_FRAME      = TEME
TIME_SYSTEM    = UTC
MEAN_ELEMENT_THEORY = SGP/SGP4

EPOCH          = 2026-02-02T11:09:23.244768
MEAN_MOTION    = 13.83253360
ECCENTRICITY   = .0000661
INCLINATION    = 142.0317
RA_OF_ASC_NODE = 284.7244
ARG_OF_PERICENTER = 265.4556
MEAN_ANOMALY   = 94.6087

EPHEMERIS_TYPE = 0
CLASSIFICATION_TYPE = U
NORAD_CAT_ID   = 67433
ELEMENT_SET_NO = 999
REV_AT_EPOCH   = 277
BSTAR          = .1396E-3
MEAN_MOTION_DOT = .343E-5
MEAN_MOTION_DDOT = 0

CCSDS_OMM_VERS = 2.0
CREATION_DATE  = 
ORIGINATOR     = 

OBJECT_NAME    = CZ-6A R/B
OBJECT_ID      = 2026-006B
CENTER_NAME    = EARTH
REF_FRAME      = TEME
TIME_SYSTEM    = UTC
MEAN_ELEMENT_THEORY = SGP/SGP4

EPOCH          = 2026-02-02T10:52:03.045792
MEAN_MOTION    = 14.62293011
ECCENTRICITY   = .0203364
INCLINATION    = 142.0436
RA_OF_ASC_NODE = 296.8225
ARG_OF_PERICENTER = 227.4790
MEAN_ANOMALY   = 130.8599

EPHEMERIS_TYPE = 0
CLASSIFICATION_TYPE = U
NORAD_CAT_ID   = 67434
ELEMENT_SET_NO = 999
REV_AT_EPOCH   = 291
BSTAR          = .1642E-3
MEAN_MOTION_DOT = .1456E-4
MEAN_MOTION_DDOT = 0

CCSDS_OMM_VERS = 2.0
CREATION_DATE  = 
ORIGINATOR     = 

OBJECT_NAME    = HULIANWANG DIGUI-137
OBJECT_ID      = 2026-007A
CENTER_NAME    = EARTH
REF_FRAME      = TEME
TIME_SYSTEM    = UTC
MEAN_ELEMENT_THEORY = SGP/SGP4

EPOCH          = 2026-02-01T00:39:44.693568
MEAN_MOTION    = 13.82639757
ECCENTRICITY   = .0000526
INCLINATION    = 50.0080
RA_OF_ASC_NODE = 221.3687
ARG_OF_PERICENTER = 259.3583
MEAN_ANOMALY   = 100.7253

EPHEMERIS_TYPE = 0
CLASSIFICATION_TYPE = U
NORAD_CAT_ID   = 67435
ELEMENT_SET_NO = 999
REV_AT_EPOCH   = 256
BSTAR          = .14679693E-3
MEAN_MOTION_DOT = .17E-6
MEAN_MOTION_DDOT = 0

